TEVEL2-5                
1 63214U 25052E   26068.96660006  .00021339  00000+0  71765-3 0  9991
2 63214  97.4013 325.3677 0004700  95.3936 264.7842 15.30817434 54919
STARLINK-33894          
1 63697U 25087A   26068.69747993  .00028522  00000+0  97148-3 0  9999
2 63697  53.1586 219.3210 0000554  28.0577 332.0454 15.30198518 49209
